DUBAISAT-1              
1 35682U 09041B   26170.32752143  .00000577  00000+0  93001-4 0  9996
2 35682  98.0055 303.5617 0011594  67.6524 292.5912 14.75125326905413
OCEANSAT-2              
1 35931U 09051A   26170.91600750 -.00000177  00000+0 -95540-4 0  9993
2 35931  98.2323 157.4953 0015425 227.7216 132.2643 13.99663780879713
WORLDVIEW-2 (WV-2)      
1 35946U 09055A   26170.80806795  .00000081  00000+0  41229-4 0  9995
2 35946  98.4737 244.2215 0003873 199.3281 160.7759 14.37900104876028
SMOS                    
1 36036U 09059A   26170.48288297  .00000171  00000+0  68385-4 0  9997
2 36036  98.4425 357.7841 0001323  88.1500 271.9840 14.39773615873788
YAOGAN-7                
1 36110U 09069A   26170.66136404  .00000342  00000+0  54461-4 0  9993
2 36110  98.0069  56.5131 0025424  34.0945 326.1892 14.78011966889995
TANDEM-X                
1 36605U 10030A   26170.49711645  .00000194  00000+0  12414-4 0  9996
2 36605  97.4451 178.1721 0001891  87.7400 272.4051 15.19151444886990
CARTOSAT-2B             
1 36795U 10035A   26170.84346995  .00000632  00000+0  93329-4 0  9993
2 36795  97.9945 221.3767 0011432 175.0474 185.0852 14.78664535860240
YAOGAN-10               
1 36834U 10038A   26170.85146047  .00001470  00000+0  17712-3 0  9999
2 36834  97.8972 194.2347 0001761  88.1299  14.5643 14.85356735857606
COSMO-SKYMED 4          
1 37216U 10060A   26170.80662450  .00000828  00000+0  11050-3 0  9990
2 37216  97.8886 354.3679 0001436  85.5898 274.5479 14.82156648844954
RESOURCESAT-2           
1 37387U 11015A   26170.83393694  .00000072  00000+0  52916-4 0  9992
2 37387  98.7644 238.2577 0010247 246.9142 113.0955 14.21600283786556
HAIYANG-2A              
1 37781U 11043A   26170.80479983 -.00000200  00000+0 -16614-3 0  9993
2 37781  99.3393 173.4232 0005807  86.3962 273.7851 13.74331458747011
RASAT                   
1 37791U 11044D   26170.84999995  .00000442  00000+0  85048-4 0  9993
2 37791  98.0577 262.2063 0020390 180.1984 318.2865 14.68168523793579
SRMSAT                  
1 37841U 11058D   26170.35988047  .00000354  00000+0  48474-4 0  9990
2 37841  19.9728  46.3158 0011744 227.6220 288.1945 14.11575972758128
PLEIADES 1A             
1 38012U 11076F   26170.87914603  .00000098  00000+0  30900-4 0  9995
2 38012  98.1974 245.9464 0001709  95.1966  16.2648 14.58571926772383
ZIYUAN 1-02C (ZY 1-02C) 
1 38038U 11079A   26170.87068216  .00000214  00000+0  84647-4 0  9993
2 38038  98.4068 238.1233 0005365 307.3649 178.0419 14.38216343759592
ARIRANG-3 (KOMPSAT-3)   
1 38338U 12025B   26170.83836321  .00000325  00000+0  73767-4 0  9998
2 38338  98.1172 128.2525 0006743 102.7402 257.4554 14.62208082751734
EXACTVIEW-1 (ADS-1B)    
1 38709U 12039C   26170.55792594  .00000087  00000+0  57017-4 0  9992
2 38709  98.9781 288.0016 0011289 159.8104 200.3523 14.24985146723040
SPOT 6                  
1 38755U 12047A   26170.80467542  .00000055  00000+0  21745-4 0  9996
2 38755  98.2114 238.0833 0001520  93.0791 267.0583 14.58563746733439
PLEIADES 1B             
1 39019U 12068A   26170.82359870  .00000098  00000+0  30850-4 0  9993
2 39019  98.1943 245.8392 0001672  91.4577 268.6814 14.58561558721238
GOKTURK 2               
1 39030U 12073A   26170.79331192  .00000720  00000+0  11255-3 0  9994
2 39030  97.6815   8.0936 0001503  56.8159 303.3195 14.75546297724896
LANDSAT 8               
1 39084U 13008A   26170.84021597  .00000237  00000+0  62629-4 0  9998
2 39084  98.2301 240.9440 0001352  93.8550 266.2803 14.57096052698282
SARAL                   
1 39086U 13009A   26170.83413934  .00000056  00000+0  36396-4 0  9991
2 39086  98.5558 357.3678 0000629 289.6456  70.4660 14.32856480695985
GAOFEN-1                
1 39150U 13018A   26170.84145929  .00000647  00000+0  99909-4 0  9995
2 39150  97.9091 242.8557 0015692 256.9632 102.9826 14.76539801708630
VNREDSAT 1              
1 39160U 13021B   26170.88960384  .00000198  00000+0  45591-4 0  9993
2 39160  97.9073 224.2025 0001705  88.1120 272.0279 14.64858372700684
ARIRANG-5 (KOMPSAT-5)   
1 39227U 13042A   26170.82647267  .00000508  00000+0  40624-4 0  9993
2 39227  97.6201 357.4899 0005432 114.3542 245.8251 15.04495283704255
SKYSAT-A                
1 39418U 13066C   26170.70438517  .00002071  00000+0  12046-3 0  9997
2 39418  97.3811 220.0216 0019939 308.1910  51.7525 15.12985941688868
DUBAISAT-2              
1 39419U 13066D   26170.85366375  .00003581  00000+0  22274-3 0  9997
2 39419  97.4569 160.9278 0011990  32.1162 328.0796 15.10197504686790
GPM-CORE                
1 39574U 14009C   26170.79930197  .00009653  00000+0  21095-3 0  9995
2 39574  64.9723 299.3784 0011729 252.5245 107.4614 15.44619429698212
SENTINEL-1A             
1 39634U 14016A   26170.83606537 -.00000170  00000+0 -26382-4 0  9995
2 39634  98.1777 178.3303 0001412  82.7039 277.4321 14.59198676650405
KAZEOSAT 1              
1 39731U 14024A   26170.79707785  .00000058  00000+0  30730-4 0  9999
2 39731  98.3202 243.1795 0001309  74.8638 285.2696 14.42080724638938
ALOS-2                  
1 39766U 14029A   26170.84448184  .00001311  00000+0  18236-3 0  9992
2 39766  97.9222 267.9701 0001677  90.9592 269.1812 14.79476609651971
